[{"OBJECT_NAME":"GEESAT-6 08","OBJECT_ID":"2025-214J","EPOCH":"2026-03-09T22:14:05.578944","MEAN_MOTION":14.83021735,"ECCENTRICITY":0.00096397,"INCLINATION":49.9907,"RA_OF_ASC_NODE":48.1729,"ARG_OF_PERICENTER":195.6006,"MEAN_ANOMALY":164.4636,"EPHEMERIS_TYPE":0,"CLASSIFICATION_TYPE":"U","NORAD_CAT_ID":65720,"ELEMENT_SET_NO":999,"REV_AT_EPOCH":2477,"BSTAR":0.00036802718,"MEAN_MOTION_DOT":2.801e-5,"MEAN_MOTION_DDOT":0},{"OBJECT_NAME":"CZ-4B DEB","OBJECT_ID":"1999-057MX","EPOCH":"2026-03-09T17:31:49.139904","MEAN_MOTION":14.69260103,"ECCENTRICITY":0.00656434,"INCLINATION":98.4159,"RA_OF_ASC_NODE":144.3439,"ARG_OF_PERICENTER":44.4026,"MEAN_ANOMALY":316.2415,"EPHEMERIS_TYPE":0,"CLASSIFICATION_TYPE":"U","NORAD_CAT_ID":28067,"ELEMENT_SET_NO":999,"REV_AT_EPOCH":22905,"BSTAR":0.00093756523,"MEAN_MOTION_DOT":5.661e-5,"MEAN_MOTION_DDOT":0}]
